PANDORA
1 67395U 80229J   26132.68262731  .00000000  00000-0  37770-3 0    00
2 67395  97.8045 131.8941 0003934 233.7805 218.0505 14.88017417    01
